*******************************************************************************
Ephemeris / WWW_USER Thu Feb  4 09:40:44 2021 Pasadena, USA      / Horizons    
*******************************************************************************
Target body name: Mercury (199)                   {source: DE431mx}
Center body name: Earth (399)                     {source: DE431mx}
Center-site name: GEOCENTRIC
*******************************************************************************
Start time      : A.D. 2020-Jan-01 00:00:00.0000 UT      
Stop  time      : A.D. 2029-Dec-31 00:00:00.0000 UT      
Step-size       : 2880 minutes
*******************************************************************************
Target pole/equ : IAU_MERCURY                     {West-longitude positive}
Target radii    : 2439.7 x 2439.7 x 2439.7 km     {Equator, meridian, pole}    
Center geodetic : 0.00000000,0.00000000,0.0000000 {E-lon(deg),Lat(deg),Alt(km)}
Center cylindric: 0.00000000,0.00000000,0.0000000 {E-lon(deg),Dxy(km),Dz(km)}
Center pole/equ : High-precision EOP model        {East-longitude positive}
Center radii    : 6378.1 x 6378.1 x 6356.8 km     {Equator, meridian, pole}    
Target primary  : Sun
Vis. interferer : MOON (R_eq= 1737.400) km        {source: DE431mx}
Rel. light bend : Sun, EARTH                      {source: DE431mx}
Rel. lght bnd GM: 1.3271E+11, 3.9860E+05 km^3/s^2                              
Atmos refraction: NO (AIRLESS)
RA format       : DEG
Time format     : CAL 
EOP file        : eop.210203.p210427                                           
EOP coverage    : DATA-BASED 1962-JAN-20 TO 2021-FEB-03. PREDICTS-> 2021-APR-26
Units conversion: 1 au= 149597870.700 km, c= 299792.458 km/s, 1 day= 86400.0 s 
Table cut-offs 1: Elevation (-90.0deg=NO ),Airmass (>38.000=NO), Daylight (NO )
Table cut-offs 2: Solar elongation (  0.0,180.0=NO ),Local Hour Angle( 0.0=NO )
Table cut-offs 3: RA/DEC angular rate (     0.0=NO )                           
Table format    : Comma Separated Values (spreadsheet)
*******************************************************************************
 Date__(UT)__HR:MN, , ,    ObsEcLon,   ObsEcLat,
************************************************
$$SOE
 2026-Dec-03 00:00, , , 234.9763492,  1.3164130,
 2026-Dec-05 00:00, , , 237.9574390,  1.0789359,
 2026-Dec-07 00:00, , , 240.9735981,  0.8372455,
 2026-Dec-09 00:00, , , 244.0145689,  0.5942802,
 2026-Dec-11 00:00, , , 247.0734107,  0.3524502,
 2026-Dec-13 00:00, , , 250.1456600,  0.1137717,
 2026-Dec-15 00:00, , , 253.2287130, -0.1200288,
 2026-Dec-17 00:00, , , 256.3213649, -0.3474335,
 2026-Dec-19 00:00, , , 259.4234672, -0.5670692,
 2026-Dec-21 00:00, , , 262.5356658, -0.7776544,
 2026-Dec-23 00:00, , , 265.6591754, -0.9779559,
 2026-Dec-25 00:00, , , 268.7955691, -1.1667502,
 2026-Dec-27 00:00, , , 271.9466561, -1.3427927,
 2026-Dec-29 00:00, , , 275.1144398, -1.5047940,
 2026-Dec-31 00:00, , , 278.3010118, -1.6513966,
 2027-Jan-02 00:00, , , 281.5083795, -1.7811387,
 2027-Jan-04 00:00, , , 284.7382957, -1.8924387,
 2027-Jan-06 00:00, , , 287.9921643, -1.9835897,
 2027-Jan-08 00:00, , , 291.2708695, -2.0526909,
 2027-Jan-10 00:00, , , 294.5745333, -2.0976276,
 2027-Jan-12 00:00, , , 297.9022050, -2.1160434,
 2027-Jan-14 00:00, , , 301.2514185, -2.1053106,
 2027-Jan-16 00:00, , , 304.6175715, -2.0625049,
 2027-Jan-18 00:00, , , 307.9930689, -1.9843939,
 2027-Jan-20 00:00, , , 311.3661630, -1.8674478,
 2027-Jan-22 00:00, , , 314.7194457, -1.7078941,
 2027-Jan-24 00:00, , , 318.0280080, -1.5018451,
 2027-Jan-26 00:00, , , 321.2572439, -1.2455398,
 2027-Jan-28 00:00, , , 324.3603158, -0.9357508,
 2027-Jan-30 00:00, , , 327.2757594, -0.5704083,
 2027-Feb-01 00:00, , , 329.9261514, -0.1494928,
 2027-Feb-03 00:00, , , 332.2190129,  0.3237885,
 2027-Feb-05 00:00, , , 334.0513594,  0.8415882,
 2027-Feb-07 00:00, , , 335.3192244,  1.3899268,
 2027-Feb-09 00:00, , , 335.9327770,  1.9474345,
 2027-Feb-11 00:00, , , 335.8362327,  2.4848970,
 2027-Feb-13 00:00, , , 335.0295220,  2.9665011,
 2027-Feb-15 00:00, , , 333.5855953,  3.3537786,
 2027-Feb-17 00:00, , , 331.6545745,  3.6124903,
 2027-Feb-19 00:00, , , 329.4472928,  3.7207536,
 2027-Feb-21 00:00, , , 327.1990990,  3.6747932,
 2027-Feb-23 00:00, , , 325.1263883,  3.4890893,
 2027-Feb-25 00:00, , , 323.3931904,  3.1909202,
 2027-Feb-27 00:00, , , 322.0982864,  2.8125223,
 2027-Mar-01 00:00, , , 321.2812003,  2.3844930,
 2027-Mar-03 00:00, , , 320.9380687,  1.9321400,
 2027-Mar-05 00:00, , , 321.0387442,  1.4745014,
 2027-Mar-07 00:00, , , 321.5404782,  1.0249483,
 2027-Mar-09 00:00, , , 322.3970661,  0.5923945,
 2027-Mar-11 00:00, , , 323.5641328,  0.1825351,
 2027-Mar-13 00:00, , , 325.0017186, -0.2011263,
 2027-Mar-15 00:00, , , 326.6751996, -0.5565105,
 2027-Mar-17 00:00, , , 328.5553085, -0.8824266,
 2027-Mar-19 00:00, , , 330.6177471, -1.1782134,
 2027-Mar-21 00:00, , , 332.8426555, -1.4435079,
 2027-Mar-23 00:00, , , 335.2140139, -1.6781020,
 2027-Mar-25 00:00, , , 337.7189985, -1.8818536,
 2027-Mar-27 00:00, , , 340.3473984, -2.0546314,
 2027-Mar-29 00:00, , , 343.0911970, -2.1962790,
 2027-Mar-31 00:00, , , 345.9442717, -2.3065944,
 2027-Apr-02 00:00, , , 348.9021452, -2.3853223,
 2027-Apr-04 00:00, , , 351.9617616, -2.4321555,
 2027-Apr-06 00:00, , , 355.1212904, -2.4467447,
 2027-Apr-08 00:00, , , 358.3799449, -2.4287137,
 2027-Apr-10 00:00, , ,   1.7377852, -2.3776835,
 2027-Apr-12 00:00, , ,   5.1954930, -2.2933075,
 2027-Apr-14 00:00, , ,   8.7541385, -2.1753247,
 2027-Apr-16 00:00, , ,  12.4149206, -2.0236357,
 2027-Apr-18 00:00, , ,  16.1787886, -1.8384087,
 2027-Apr-20 00:00, , ,  20.0458399, -1.6202222,
 2027-Apr-22 00:00, , ,  24.0144462, -1.3702485,
 2027-Apr-24 00:00, , ,  28.0801497, -1.0904825,
 2027-Apr-26 00:00, , ,  32.2344080, -0.7840034,
 2027-Apr-28 00:00, , ,  36.4632899, -0.4552468,
 2027-Apr-30 00:00, , ,  40.7464711, -0.1101705,
 2027-May-02 00:00, , ,  45.0564527,  0.2436066,
 2027-May-04 00:00, , ,  49.3595744,  0.5970797,
 2027-May-06 00:00, , ,  53.6176714,  0.9403187,
 2027-May-08 00:00, , ,  57.7912203,  1.2631975,
 2027-May-10 00:00, , ,  61.8427499,  1.5561939,
 2027-May-12 00:00, , ,  65.7397204,  1.8110426,
 2027-May-14 00:00, , ,  69.4561506,  2.0210938,
 2027-May-16 00:00, , ,  72.9727487,  2.1813578,
 2027-May-18 00:00, , ,  76.2758625,  2.2883163,
 2027-May-20 00:00, , ,  79.3558533,  2.3396214,
 2027-May-22 00:00, , ,  82.2054258,  2.3337879,
 2027-May-24 00:00, , ,  84.8182180,  2.2699407,
 2027-May-26 00:00, , ,  87.1877565,  2.1476472,
 2027-May-28 00:00, , ,  89.3067822,  1.9668439,
 2027-May-30 00:00, , ,  91.1669220,  1.7278562,
 2027-Jun-01 00:00, , ,  92.7586973,  1.4315130,
 2027-Jun-03 00:00, , ,  94.0718623,  1.0793582,
 2027-Jun-05 00:00, , ,  95.0960919,  0.6739634,
 2027-Jun-07 00:00, , ,  95.8221159,  0.2193364,
 2027-Jun-09 00:00, , ,  96.2434871, -0.2785947,
 2027-Jun-11 00:00, , ,  96.3589845, -0.8114773,
 2027-Jun-13 00:00, , ,  96.1753537, -1.3681029,
 2027-Jun-15 00:00, , ,  95.7100533, -1.9341947,
 2027-Jun-17 00:00, , ,  94.9936127, -2.4925917,
 2027-Jun-19 00:00, , ,  94.0709844, -3.0239918,
 2027-Jun-21 00:00, , ,  93.0011921, -3.5083066,
 2027-Jun-23 00:00, , ,  91.8548115, -3.9264918,
 2027-Jun-25 00:00, , ,  90.7093536, -4.2625063,
 2027-Jun-27 00:00, , ,  89.6432882, -4.5049381,
 2027-Jun-29 00:00, , ,  88.7299220, -4.6478956,
 2027-Jul-01 00:00, , ,  88.0323909, -4.6909986,
 2027-Jul-03 00:00, , ,  87.6006215, -4.6385879,
 2027-Jul-05 00:00, , ,  87.4705277, -4.4984744,
 2027-Jul-07 00:00, , ,  87.6651782, -4.2806011,
 2027-Jul-09 00:00, , ,  88.1971694, -3.9958991,
 2027-Jul-11 00:00, , ,  89.0712479, -3.6554643,
 2027-Jul-13 00:00, , ,  90.2866624, -3.2700611,
 2027-Jul-15 00:00, , ,  91.8390865, -2.8499070,
 2027-Jul-17 00:00, , ,  93.7219638, -2.4046714,
 2027-Jul-19 00:00, , ,  95.9271643, -1.9436159,
 2027-Jul-21 00:00, , ,  98.4449108, -1.4758038,
 2027-Jul-23 00:00, , , 101.2630012, -1.0103065,
 2027-Jul-25 00:00, , , 104.3654576, -0.5563335,
 2027-Jul-27 00:00, , , 107.7308903, -0.1232065,
 2027-Jul-29 00:00, , , 111.3310724,  0.2798861,
 2027-Jul-31 00:00, , , 115.1303792,  0.6443678,
 2027-Aug-02 00:00, , , 119.0867032,  0.9629115,
 2027-Aug-04 00:00, , , 123.1540654,  1.2300644,
 2027-Aug-06 00:00, , , 127.2863622,  1.4426579,
 2027-Aug-08 00:00, , , 131.4410676,  1.5998739,
 2027-Aug-10 00:00, , , 135.5819419,  1.7029743,
 2027-Aug-12 00:00, , , 139.6803854,  1.7547946,
 2027-Aug-14 00:00, , , 143.7154079,  1.7591837,
 2027-Aug-16 00:00, , , 147.6728292,  1.7205583,
 2027-Aug-18 00:00, , , 151.5439391,  1.6434510,
 2027-Aug-20 00:00, , , 155.3241275,  1.5322927,
 2027-Aug-22 00:00, , , 159.0116710,  1.3912652,
 2027-Aug-24 00:00, , , 162.6067312,  1.2242337,
 2027-Aug-26 00:00, , , 166.1105704,  1.0347291,
 2027-Aug-28 00:00, , , 169.5249563,  0.8259619,
 2027-Aug-30 00:00, , , 172.8517370,  0.6008509,
 2027-Sep-01 00:00, , , 176.0925871,  0.3620583,
 2027-Sep-03 00:00, , , 179.2488464,  0.1120244,
 2027-Sep-05 00:00, , , 182.3213190, -0.1469957,
 2027-Sep-07 00:00, , , 185.3100592, -0.4128927,
 2027-Sep-09 00:00, , , 188.2142189, -0.6836590,
 2027-Sep-11 00:00, , , 191.0318979, -0.9573430,
 2027-Sep-13 00:00, , , 193.7599493, -1.2320005,
 2027-Sep-15 00:00, , , 196.3937371, -1.5056413,
 2027-Sep-17 00:00, , , 198.9268308, -1.7761667,
 2027-Sep-19 00:00, , , 201.3506147, -2.0412944,
 2027-Sep-21 00:00, , , 203.6537816, -2.2984653,
 2027-Sep-23 00:00, , , 205.8217003, -2.5447260,
 2027-Sep-25 00:00, , , 207.8356613, -2.7765783,
 2027-Sep-27 00:00, , , 209.6720203, -2.9897871,
 2027-Sep-29 00:00, , , 211.3012648, -3.1791349,
 2027-Oct-01 00:00, , , 212.6870488, -3.3381161,
 2027-Oct-03 00:00, , , 213.7853755, -3.4585736,
 2027-Oct-05 00:00, , , 214.5444372, -3.5303092,
 2027-Oct-07 00:00, , , 214.9059677, -3.5407716,
 2027-Oct-09 00:00, , , 214.8093785, -3.4750536,
 2027-Oct-11 00:00, , , 214.2005684, -3.3166384,
 2027-Oct-13 00:00, , , 213.0474640, -3.0495650,
